ABS-3A                  
1 40424U 15010A   24220.03033260 -.00000028  00000+0  00000+0 0  9997
2 40424   0.0144  60.6762 0001786 356.5368 266.7495  1.00278750 34567
EUTELSAT 115 WEST B     
1 40425U 15010B   24220.50890821 -.00000026  00000+0  00000+0 0  9992
2 40425   0.0169 225.8163 0000187 289.6766 229.3088  1.00273139 34588
EXPRESS-AM7             
1 40505U 15012A   24220.53971424  .00000149  00000+0  00000+0 0  9990
2 40505   0.0112 104.9843 0002784  38.1066  47.7703  1.00276335 34208
IRNSS-1D                
1 40547U 15018A   24220.51577378 -.00000266  00000+0  00000+0 0  9991
2 40547  27.3866 251.8171 0021552 196.3150 165.8101  1.00264755 34187
BEIDOU-3S IGSO-1S       
1 40549U 15019A   24220.55745897 -.00000166  00000+0  00000+0 0  9990
2 40549  50.4762 303.5869 0036274 194.9556 112.8122  1.00294985 34263
THOR 7                  
1 40613U 15022A   24220.39363984 -.00000010  00000+0  00000+0 0  9999
2 40613   0.0290 220.0770 0002667 274.9560 322.4054  1.00271500 34013
TURKMENALEM52E/MONACOSAT
1 40617U 15023A   24220.25585213  .00000101  00000+0  00000+0 0  9990
2 40617   0.0252 108.6421 0002196  43.9233 307.8307  1.00273313 34042
DIRECTV 15              
1 40663U 15026A   24220.11342874 -.00000105  00000+0  00000+0 0  9998
2 40663   0.0149  93.1365 0000338 153.1749   7.7667  1.00273864 33668
SKY MEXICO-1            
1 40664U 15026B   24220.48118919 -.00000235  00000+0  00000+0 0  9994
2 40664   0.0362 292.7592 0002013 208.9157 269.2570  1.00269838 33641
METEOSAT-11 (MSG-4)     
1 40732U 15034A   24220.03276924  .00000061  00000+0  00000+0 0  9997
2 40732   1.5049  70.1028 0001675 160.3949 106.8120  1.00278692   414
STAR ONE C4             
1 40733U 15034B   24220.16011855 -.00000267  00000+0  00000+0 0  9991
2 40733   0.0266   4.9137 0001252 137.8484 161.0548  1.00271836 33214
WGS F7 (USA 263)        
1 40746U 15036A   24220.61418324  .00000017  00000+0  00000+0 0  9991
2 40746   0.0134  63.8915 0000415  29.7262 259.0963  1.00273481 33063
INTELSAT 34 (IS-34)     
1 40874U 15039A   24220.29777222 -.00000287  00000+0  00000+0 0  9995
2 40874   0.0404 314.3490 0001300  60.0718 353.5800  1.00271051 32818
EUTELSAT 8 WEST B       
1 40875U 15039B   24220.38699522 -.00000067  00000+0  00000+0 0  9998
2 40875   0.0684 343.6453 0003485 151.1098 312.9410  1.00271692 32842
GSAT-6                  
1 40880U 15041A   24220.54815542 -.00000162  00000+0  00000+0 0  9993
2 40880   0.1566  95.5767 0003023  49.6691  91.1515  1.00271184 32799
INMARSAT 5-F3           
1 40882U 15042A   24220.13815361  .00000047  00000+0  00000+0 0  9991
2 40882   0.0169  85.3191 0000145 340.9673 119.1895  1.00271878 32754
MUOS-4                  
1 40887U 15044A   24220.54658903 -.00000094  00000+0  00000+0 0  9993
2 40887   3.1748  33.3030 0054534   2.7832 192.2298  1.00271968 32751
TJS-1                   
1 40892U 15046A   24220.59096800 -.00000157  00000+0  00000+0 0  9998
2 40892   0.0418 181.0635 0000935 179.0665 324.2172  1.00273295 32750
EXPRESS-AM8             
1 40895U 15048A   24220.17117043 -.00000114  00000+0  00000+0 0  9993
2 40895   0.0023 331.6410 0000355  34.3699 357.7720  1.00270607 32535
BEIDOU-3S IGSO-2S       
1 40938U 15053A   24219.58171016 -.00000090  00000+0  00000+0 0  9993
2 40938  50.2787 266.8156 0053159 189.1178 162.4789  1.00295088 32530
SKY MUSTER 1 (NBN1A)    
1 40940U 15054A   24220.60091289 -.00000280  00000+0  00000+0 0  9996
2 40940   0.0153 104.8324 0001721  33.1087 175.2302  1.00269027 32454
ARSAT 2                 
1 40941U 15054B   24220.47960870 -.00000226  00000+0  00000+0 0  9993
2 40941   0.0193 298.8466 0001991 189.5267 279.7685  1.00268572 32509
MORELOS 3               
1 40946U 15056A   24220.07993549 -.00000043  00000+0  00000+0 0  9992
2 40946   3.0050 353.7715 0002814 188.9150  49.0713  1.00272403 32470
APSTAR-9                
1 40982U 15059A   24220.60091252 -.00000267  00000+0  00000+0 0  9992
2 40982   0.0680 274.6876 0003440 276.0531 124.1692  1.00270240 32314
TURKSAT 4B              
1 40984U 15060A   24220.47009612  .00000113  00000+0  00000+0 0  9999
2 40984   0.0259  88.8584 0004005  20.4171  66.3935  1.00270916 32292
ZHONGXING-2C            
1 41021U 15063A   24220.64558465 -.00000326  00000+0  00000+0 0  9996
2 41021   0.0140 115.3988 0004700   4.4929 172.6427  1.00281645 32190
GSAT-15                 
1 41028U 15065A   24219.97794502 -.00000261  00000+0  00000+0 0  9991
2 41028   0.0159 274.3898 0003488 198.8092 288.3734  1.00269568 31986
BADR-7 (ARABSAT-6B)     
1 41029U 15065B   24220.53684248  .00000143  00000+0  00000+0 0  9999
2 41029   0.0517 241.1732 0005112 332.5960 321.9954  1.00271855 31969
LAOSAT 1                
1 41034U 15067A   24220.59653296 -.00000344  00000+0  00000+0 0  9996
2 41034   0.0117 136.8070 0002451 304.0792 218.9704  1.00270969 32050
TELSTAR 12V             
1 41036U 15068A   24220.17099639 -.00000121  00000+0  00000+0 0  9991
2 41036   0.0047 275.2053 0002123 229.0167 218.5049  1.00273042 31817
ELEKTRO-L 2             
1 41105U 15074A   24220.06646557 -.00000120  00000+0  00000+0 0  9999
2 41105   4.9677  78.8575 0001739 149.9404  96.7229  1.00272650 31694
COSMOS 2513             
1 41121U 15075A   24220.54763328 -.00000140  00000+0  00000+0 0  9999
2 41121   0.0429 108.7773 0001602 346.9830 138.1672  1.00273769 31738
EXPRESS-AMU1            
1 41191U 15082A   24220.53893102  .00000154  00000+0  00000+0 0  9991
2 41191   0.0209  86.6748 0002295  52.0224  47.9297  1.00270723 31465
GAOFEN-4                
1 41194U 15083A   24220.64725966 -.00000336  00000+0  00000+0 0  9992
2 41194   0.0244 155.5164 0000479   5.2662 134.5766  1.00271668 31725
BELINTERSAT-1           
1 41238U 16001A   24220.54197682  .00000105  00000+0  00000+0 0  9992
2 41238   0.0720 280.3185 0000686 183.8558  98.9816  1.00273881 31436
IRNSS-1E                
1 41241U 16003A   24220.63358237 -.00000299  00000+0  00000+0 0  9998
2 41241  31.7456  72.7092 0019446 178.9534  44.8659  1.00277381 31276
EUTELSAT 9B             
1 41310U 16005A   24219.96114613  .00000059  00000+0  00000+0 0  9992
2 41310   0.0171  33.1095 0002154 150.5835 127.2939  1.00276501 31302
SES-9                   
1 41380U 16013A   24220.64831949 -.00000346  00000+0  00000+0 0  9993
2 41380   0.0170 285.5955 0002051 186.6836 186.0515  1.00267203 30630
EUTELSAT 65 WEST A      
1 41382U 16014A   24220.48906295 -.00000277  00000+0  00000+0 0  9998
2 41382   0.0866 301.8821 0002080 194.5928 290.8857  1.00272268 30731
IRNSS-1F                
1 41384U 16015A   24220.46652821  .00000156  00000+0  00000+0 0  9997
2 41384   3.6869 115.9398 0018382 178.2052 222.6671  1.00273142 30860
BEIDOU-2 IGSO-6         
1 41434U 16021A   24218.97686657 -.00000130  00000+0  00000+0 0  9990
2 41434  59.2512  44.8428 0048587 221.2774 134.5881  1.00262291 30656
IRNSS-1G                
1 41469U 16027A   24220.59653308 -.00000337  00000+0  00000+0 0  9991
2 41469   3.5557 117.1161 0005317 347.0245 196.7940  1.00272975 30372
JCSAT-2B                
1 41471U 16028A   24219.89250760 -.00000169  00000+0  00000+0 0  9994
2 41471   0.0160  80.7678 0000699  46.4731 303.9451  1.00271980 30300
THAICOM 8               
1 41552U 16031A   24220.54728520 -.00000123  00000+0  00000+0 0  9996
2 41552   0.0659  49.9552 0001804  59.2525 122.8811  1.00271597 29910
INTELSAT 31 (IS-31)     
1 41581U 16035A   24219.14493837 -.00000157  00000+0  00000+0 0  9993
2 41581   0.0132 100.6031 0000982  75.4227  96.2564  1.00271825 29878
BEIDOU-2 G7             
1 41586U 16037A   24220.64896475 -.00000355  00000+0  00000+0 0  9992
2 41586   1.5014  65.0150 0007556 358.3307 237.4953  1.00273040    84
ABS-2A (MONGOLSAT-1)    
1 41588U 16038A   24220.54658903 -.00000085  00000+0  00000+0 0  9996
2 41588   0.0212  91.1348 0001706 351.7214 145.1840  1.00268362 29907
EUTELSAT 117 WEST B     
1 41589U 16038B   24219.60882653 -.00000016  00000+0  00000+0 0  9997
2 41589   0.0165 236.3739 0000114 280.7484 260.6747  1.00271956 29850
BRISAT                  
1 41591U 16039A   24219.98869102 -.00000201  00000+0  00000+0 0  9992
2 41591   0.0220  91.6199 0002072  46.0036 324.7884  1.00268287 29800
ECHOSTAR 18             
1 41592U 16039B   24220.01867160 -.00000285  00000+0  00000+0 0  9993
2 41592   0.0157  87.9318 0001450  51.7198 121.7402  1.00273287 29810
MUOS-5                  
1 41622U 16041A   24220.40045934 -.00000148  00000+0  00000+0 0  9998
2 41622   3.7606 296.8199 0198466 253.0459 165.6361  1.00273938 30289
TIANTONG-1 1            
1 41725U 16048A   24220.64470844 -.00000319  00000+0  00000+0 0  9997
2 41725   2.6989  31.1820 0000834  38.3671 220.5655  1.00269647 29464
JCSAT-16                
1 41729U 16050A   24219.98869102 -.00000254  00000+0  00000+0 0  9996
2 41729   0.0165  83.2135 0001639  14.7583 357.8846  1.00272155 29269
USA 270                 
1 41744U 16052A   24217.46145353 -.00000333  00000+0  00000+0 0  9999
2 41744   2.4375  85.9319 0000851 150.1991 347.4854  1.00233719 21293
USA 271                 
1 41745U 16052B   24217.46763160 -.00000048  00000+0  00000+0 0  9995
2 41745   2.4136  85.9388 0008505 263.1675 301.0160  1.00271667   560
INTELSAT 36 (IS-36)     
1 41747U 16053A   24220.47383810 -.00000026  00000+0  00000+0 0  9999
2 41747   0.0100  48.4321 0003041 320.5574 186.5479  1.00271316 29149
INTELSAT 33E (IS-33E)   
1 41748U 16053B   24220.54363024  .00000047  00000+0  00000+0 0  9995
2 41748   0.0149  81.4426 0002138  48.0120  82.7934  1.00272429 29443
INSAT-3DR               
1 41752U 16054A   24220.54641497 -.00000078  00000+0  00000+0 0  9999
2 41752   0.0486  94.7268 0010955 168.4676 324.0356  1.00272472 29013
GSAT-18                 
1 41793U 16060A   24220.04556156 -.00000080  00000+0  00000+0 0  9996
2 41793   0.0182 100.4230 0002168  26.8273 279.1898  1.00270260 28712
